{
  "type": "FeatureCollection",
  "features": [
    {
      "type": "Feature",
      "properties": {
        "norad_id": 66582,
        "name": "STARLINK-35746",
        "group": "last-30-days",
        "lat": 40.803249913250184,
        "lon": 159.2687269286328,
        "alt_km": 409.196714023984,
        "timestamp": "2025-12-17T19:34:06.800197+00:00",
        "meta_object_name": "STARLINK-35746",
        "meta_object_id": "2025-268AB",
        "meta_epoch": "2025-12-16T15:25:40.461888",
        "meta_mean_motion": 15.50594828,
        "meta_eccentricity": 0.00019721,
        "meta_inclination": 43.001,
        "meta_ra_of_asc_node": 98.2522,
        "meta_arg_of_pericenter": 274.4376,
        "meta_mean_anomaly": 85.6259,
        "meta_ephemeris_type": 0,
        "meta_classification_type": "U",
        "meta_norad_cat_id": 66582,
        "meta_element_set_no": 999,
        "meta_rev_at_epoch": 523,
        "meta_bstar": 0.0011306109,
        "meta_mean_motion_dot": 0.00066591,
        "meta_mean_motion_ddot": 0,
        "tle_line1": "1 66582U 25268AB  25350.64282942  .00066591  00000+0  11306-2 0  9991",
        "tle_line2": "2 66582  43.0010  98.2522 0001972 274.4376  85.6259 15.50594828  5239"
      },
      "geometry": {
        "type": "Point",
        "coordinates": [
          159.2687269286328,
          40.803249913250184
        ]
      }
    },
    {
      "type": "Feature",
      "properties": {
        "norad_id": 66583,
        "name": "STARLINK-35941",
        "group": "last-30-days",
        "lat": 41.206024843620575,
        "lon": 161.38810147513942,
        "alt_km": 408.56383554889817,
        "timestamp": "2025-12-17T19:34:06.800208+00:00",
        "meta_object_name": "STARLINK-35941",
        "meta_object_id": "2025-268AC",
        "meta_epoch": "2025-12-17T08:25:31.533888",
        "meta_mean_motion": 15.50647835,
        "meta_eccentricity": 0.00018765,
        "meta_inclination": 42.9991,
        "meta_ra_of_asc_node": 94.1057,
        "meta_arg_of_pericenter": 187.7575,
        "meta_mean_anomaly": 172.3257,
        "meta_ephemeris_type": 0,
        "meta_classification_type": "U",
        "meta_norad_cat_id": 66583,
        "meta_element_set_no": 999,
        "meta_rev_at_epoch": 534,
        "meta_bstar": 0.0017018479,
        "meta_mean_motion_dot": 0.00101045,
        "meta_mean_motion_ddot": 0,
        "tle_line1": "1 66583U 25268AC  25351.35105942  .00101045  00000+0  17018-2 0  9995",
        "tle_line2": "2 66583  42.9991  94.1057 0001876 187.7575 172.3257 15.50647835  5345"
      },
      "geometry": {
        "type": "Point",
        "coordinates": [
          161.38810147513942,
          41.206024843620575
        ]
      }
    },
    {
      "type": "Feature",
      "properties": {
        "norad_id": 66584,
        "name": "STARLINK-35939",
        "group": "last-30-days",
        "lat": 41.60871953948746,
        "lon": 163.76820535667244,
        "alt_km": 409.10092742560664,
        "timestamp": "2025-12-17T19:34:06.800218+00:00",
        "meta_object_name": "STARLINK-35939",
        "meta_object_id": "2025-268AD",
        "meta_epoch": "2025-12-17T08:25:02.020512",
        "meta_mean_motion": 15.50616148,
        "meta_eccentricity": 0.00014233,
        "meta_inclination": 42.9988,
        "meta_ra_of_asc_node": 94.1028,
        "meta_arg_of_pericenter": 248.6994,
        "meta_mean_anomaly": 111.3715,
        "meta_ephemeris_type": 0,
        "meta_classification_type": "U",
        "meta_norad_cat_id": 66584,
        "meta_element_set_no": 999,
        "meta_rev_at_epoch": 534,
        "meta_bstar": 0.0010334427,
        "meta_mean_motion_dot": 0.00060839,
        "meta_mean_motion_ddot": 0,
        "tle_line1": "1 66584U 25268AD  25351.35071783  .00060839  00000+0  10334-2 0  9990",
        "tle_line2": "2 66584  42.9988  94.1028 0001423 248.6994 111.3715 15.50616148  5345"
      },
      "geometry": {
        "type": "Point",
        "coordinates": [
          163.76820535667244,
          41.60871953948746
        ]
      }
    },
    {
      "type": "Feature",
      "properties": {
        "norad_id": 66585,
        "name": "STARLINK-35963",
        "group": "last-30-days",
        "lat": 41.98231174505523,
        "lon": 166.33175986098172,
        "alt_km": 409.4679849997283,
        "timestamp": "2025-12-17T19:34:06.800227+00:00",
        "meta_object_name": "STARLINK-35963",
        "meta_object_id": "2025-268AE",
        "meta_epoch": "2025-12-17T08:24:32.457024",
        "meta_mean_motion": 15.50631925,
        "meta_eccentricity": 0.00023779,
        "meta_inclination": 42.9984,
        "meta_ra_of_asc_node": 94.1002,
        "meta_arg_of_pericenter": 280.9473,
        "meta_mean_anomaly": 79.1119,
        "meta_ephemeris_type": 0,
        "meta_classification_type": "U",
        "meta_norad_cat_id": 66585,
        "meta_element_set_no": 999,
        "meta_rev_at_epoch": 534,
        "meta_bstar": 0.001204031,
        "meta_mean_motion_dot": 0.00071075,
        "meta_mean_motion_ddot": 0,
        "tle_line1": "1 66585U 25268AE  25351.35037566  .00071075  00000+0  12040-2 0  9992",
        "tle_line2": "2 66585  42.9984  94.1002 0002377 280.9473  79.1119 15.50631925  5343"
      },
      "geometry": {
        "type": "Point",
        "coordinates": [
          166.33175986098172,
          41.98231174505523
        ]
      }
    },
    {
      "type": "Feature",
      "properties": {
        "norad_id": 66586,
        "name": "TJS-21",
        "group": "last-30-days",
        "lat": 53.90016820369584,
        "lon": -154.4626444017005,
        "alt_km": 30854.144607479593,
        "timestamp": "2025-12-17T19:34:06.800246+00:00",
        "meta_object_name": "TJS-21",
        "meta_object_id": "2025-269A",
        "meta_epoch": "2025-12-10T17:31:22.184832",
        "meta_mean_motion": 2.00567425,
        "meta_eccentricity": 0.6805766,
        "meta_inclination": 63.269,
        "meta_ra_of_asc_node": 162.5612,
        "meta_arg_of_pericenter": 269.7806,
        "meta_mean_anomaly": 18.6565,
        "meta_ephemeris_type": 0,
        "meta_classification_type": "U",
        "meta_norad_cat_id": 66586,
        "meta_element_set_no": 999,
        "meta_rev_at_epoch": 39,
        "meta_bstar": -0.044965385,
        "meta_mean_motion_dot": 1.083e-05,
        "meta_mean_motion_ddot": 0,
        "tle_line1": "1 66586U 25269A   25344.73011788  .00001083  00000+0 -44965-1 0  9999",
        "tle_line2": "2 66586  63.2690 162.5612 6805766 269.7806  18.6565  2.00567425   392"
      },
      "geometry": {
        "type": "Point",
        "coordinates": [
          -154.4626444017005,
          53.90016820369584
        ]
      }
    },
    {
      "type": "Feature",
      "properties": {
        "norad_id": 66587,
        "name": "CZ-3B R/B",
        "group": "last-30-days",
        "lat": 28.54561478147385,
        "lon": -165.7534524724035,
        "alt_km": 36808.39045711324,
        "timestamp": "2025-12-17T19:34:06.800263+00:00",
        "meta_object_name": "CZ-3B R/B",
        "meta_object_id": "2025-269B",
        "meta_epoch": "2025-12-17T04:50:14.865216",
        "meta_mean_motion": 2.03937792,
        "meta_eccentricity": 0.75168551,
        "meta_inclination": 51.3435,
        "meta_ra_of_asc_node": 168.6023,
        "meta_arg_of_pericenter": 229.5038,
        "meta_mean_anomaly": 36.3416,
        "meta_ephemeris_type": 0,
        "meta_classification_type": "U",
        "meta_norad_cat_id": 66587,
        "meta_element_set_no": 999,
        "meta_rev_at_epoch": 54,
        "meta_bstar": 0.00055683527,
        "meta_mean_motion_dot": 0.00072738,
        "meta_mean_motion_ddot": -9.18653e-07,
        "tle_line1": "1 66587U 25269B   25351.20156094  .00072738 -91865-6  55684-3 0  9993",
        "tle_line2": "2 66587  51.3435 168.6023 7516855 229.5038  36.3416  2.03937792   541"
      },
      "geometry": {
        "type": "Point",
        "coordinates": [
          -165.7534524724035,
          28.54561478147385
        ]
      }
    },
    {
      "type": "Feature",
      "properties": {
        "norad_id": 66588,
        "name": "STARLINK-36076",
        "group": "last-30-days",
        "lat": 37.087159347372136,
        "lon": -70.6869887853702,
        "alt_km": 438.79962106968196,
        "timestamp": "2025-12-17T19:34:06.800277+00:00",
        "meta_object_name": "STARLINK-36076",
        "meta_object_id": "2025-270A",
        "meta_epoch": "2025-12-17T00:00:02.999808",
        "meta_mean_motion": 15.40680054,
        "meta_eccentricity": 0.00021536,
        "meta_inclination": 42.9991,
        "meta_ra_of_asc_node": 168.2311,
        "meta_arg_of_pericenter": 247.7445,
        "meta_mean_anomaly": 22.3113,
        "meta_ephemeris_type": 0,
        "meta_classification_type": "U",
        "meta_norad_cat_id": 66588,
        "meta_element_set_no": 999,
        "meta_rev_at_epoch": 508,
        "meta_bstar": 0.0021211795,
        "meta_mean_motion_dot": 0.0008929,
        "meta_mean_motion_ddot": 0,
        "tle_line1": "1 66588U 25270A   25351.00003472  .00089290  00000+0  21212-2 0  9998",
        "tle_line2": "2 66588  42.9991 168.2311 0002153 247.7445  22.3113 15.40680054  5083"
      },
      "geometry": {
        "type": "Point",
        "coordinates": [
          -70.6869887853702,
          37.087159347372136
        ]
      }
    }
  ]
}